YOTSUBA-KULOVER         
1 65941U 98067XN  26048.29454544  .00151622  00000+0  10588-2 0  9992
2 65941  51.6249 162.4501 0004940 319.7640  40.2992 15.73292951 20282
BOTAN                   
1 65942U 98067XP  26048.27341133  .00491628  10444-3  14794-2 0  9993
2 65942  51.6160 157.7353 0009000 339.1028  20.9609 15.91598962 20343
E-KAGAKU-1              
1 65943U 98067XQ  26048.29602772  .00149960  00000+0  10541-2 0  9993
2 65943  51.6273 162.4733 0004952 332.5511  27.5225 15.73144865 20288
HRC MONOBLOCK CAMERA    
1 66052U 98067XR  26047.57427128  .00048848  00000+0  59582-3 0  9997
2 66052  51.6281 171.9106 0002145  13.3366 346.7683 15.59974289 19098
HTV-X1                  
1 66174U 25241A   26048.18286298  .00009660  00000+0  18518-3 0  9998
2 66174  51.6319 173.7204 0011018 107.0393 253.1803 15.48657976   515
SZ-21 MODULE            
1 66515U 25246C   26048.17866810  .00037852  00000+0  34761-3 0  9997
2 66515  41.4766 329.4655 0001967 297.4736  62.5905 15.66957917 14859
SHENZHOU-22             
1 66645U 25272A   26048.23206423  .00029154  00000+0  35627-3 0  9993
2 66645  41.4683 332.5551 0004162 122.3722 237.7519 15.59770251267642
SOYUZ-MS 28             
1 66664U 25275A   26048.18286298  .00009660  00000+0  18518-3 0  9999
2 66664  51.6319 173.7204 0011018 107.0393 253.1803 15.48657976  1284
DUPLEX                  
1 66906U 98067XS  26047.64164840  .00037668  00000+0  56088-3 0  9998
2 66906  51.6294 174.6104 0001508  64.3844 295.7303 15.54741995 11856
ISS OBJECT XT           
1 66907U 98067XT  26047.58868930  .00119926  00000+0  12603-2 0  9995
2 66907  51.6273 172.7525 0002478 318.2214  41.8591 15.63436721 11878
ISS OBJECT XU           
1 66908U 98067XU  26047.90751538  .00128395  00000+0  13406-2 0  9999
2 66908  51.6262 171.1290 0002474 328.0215  32.0628 15.63568790 11926
SILVERSAT               
1 66909U 98067XV  26047.55492294  .00145375  00000+0  14211-2 0  9994
2 66909  51.6271 172.5261 0003274 318.3444  41.7301 15.65168033 11872
